{"data":[ { "ind": 0,
	    "Brand": "AUTOSTAR COMERCIAL E IMPORTADORA LTDA",
	    "Name": ",Jardins - Autostar",
	    "estate": "SP",
	    "city": "São Paulo",
	    "address": "Av. Europa, 725",
	    "zipcode": "01449-001",
	    "cnpj": "68.976.091/0004-81",
	    "DealerCode": "06704" },
	  { "ind": 1,
	    "Brand": "AUTOSTAR COMERCIAL E IMPORTADORA LTDA",
	    "Name": ",Morumbi - Autostar",
	    "estate": "SP",
	    "city": "São Paulo",
	    "address": "Av. Morumbi 6989",
	    "zipcode": "05650-002",
	    "cnpj": "68.976.091/0001-39",
	    "DealerCode": "06702" },
	  { "ind": 2,
	    "Brand": "CALMAC DF VEICULOS LTDA",
	    "Name": ",DF - Caltabiano",
	    "estate": "DF",
	    "city": "Brasilia",
	    "address": "SIA Trecho 1, 1570 Parte A",
	    "zipcode": "71200-010",
	    "cnpj": "09.212.725/0001-18",
	    "DealerCode": "06716" },
	  { "ind": 3,
	    "Brand": "CALMAC NORTE VEICULOS LTDA",
	    "Name": ",Pacaembu - Caltabiano",
	    "estate": "SP",
	    "city": "São Paulo",
	    "address": "Avenida Pacaembu, 410",
	    "zipcode": "01155-000",
	    "cnpj": "09.192.778/0001-14",
	    "DealerCode": "06738" },
	  { "ind": 4,
	    "Brand": "CALMAC VEICULOS LTDA",
	    "Name": ",Pinheiros - Caltabiano",
	    "estate": "SP",
	    "city": "São Paulo",
	    "address": "Avenida Das Nacoes Unidas, 7885",
	    "zipcode": "05425-070",
	    "cnpj": "04.282.593/0001-87",
	    "DealerCode": "06782" },
	  { "ind": 5,
	    "Brand": "ENZO COMERCIO DE VEICULOS LTDA",
	    "Name": "Enzo",
	    "estate": "MS",
	    "city": "Campo Grande",
	    "address": "Av Costa e Silva, 429",
	    "zipcode": "79050-001",
	    "cnpj": "16.946.149/0001-06",
	    "DealerCode": "06761" },
	  { "ind": 6,
	    "Brand": "BCLV  COMERCIO DE VEICULOS LTDA",
	    "Name": "Eurobike Ribeirão Preto",
	    "estate": "SP",
	    "city": "Ribeirão Preto",
	    "address": "Av. Wladimir Meirelles Ferreira, 1650",
	    "zipcode": "14020-630",
	    "cnpj": "04.871.143/0025-05",
	    "DealerCode": "06762" },
	  { "ind": 7,
	    "Brand": "BCLV  COMERCIO DE VEICULOS LTDA",
	    "Name": "Eurobike Uberlândia",
	    "estate": "MG",
	    "city": "Uberlândia",
	    "address": "Av, dos Vinhedos, 300",
	    "zipcode": "38411-159",
	    "cnpj": "21.162.777/0003-94",
	    "DealerCode": "06794" },
	  { "ind": 8,
	    "Brand": "SUL IMPORT VEICULOS E SERVICOS LTDA",
	    "Name": "Euro import Curitiba",
	    "estate": "PR",
	    "city": "Curitiba",
	    "address": "Av. Pres. Arthur Bernardes,  118",
	    "zipcode": "080320-30",
	    "cnpj": " 13.705.543/0001-56",
	    "DealerCode": "06749" },
	  { "ind": 9,
	    "Brand": "SUL IMPORT VEICULOS E SERVICOS LTDA",
	    "Name": "Euro import Londrina",
	    "estate": "PR",
	    "city": "Londrina",
	    "address": "Avenida Tiradentes, 5665",
	    "zipcode": "86070-680",
	    "cnpj": "13.705.543/0002-37 ",
	    "DealerCode": "06750" },
	  { "ind": 10,
	    "Brand": "SUL IMPORT VEICULOS E SERVICOS LTDA",
	    "Name": "Euro import Maringá",
	    "estate": "PR",
	    "city": "Maringá",
	    "address": "Rua Gaspar Ricardo, 235",
	    "zipcode": "87040-365",
	    "cnpj": "13.705.543/0003-18",
	    "DealerCode": "06783" },
	  { "ind": 11,
	    "Brand": "MG NEGOCIOS AUTOMOTIVOS LTDA",
	    "Name": "Euromotors SJRP",
	    "estate": "SP",
	    "city": "São José do Rio Preto",
	    "address": "Av Pres. Juscelino Kubitschek 3600",
	    "zipcode": "15093-225",
	    "cnpj": "22.617.332/0003-14",
	    "DealerCode": "06781" },
	  { "ind": 12,
	    "Brand": "DIVEPEL DISTRIBUIDORA DE VEICULOS PEIXOTO LTDA.",
	    "Name": "Extrema",
	    "estate": "CE",
	    "city": "Fortaleza",
	    "address": "Avenida Desembargador Moreira, 3034",
	    "zipcode": "60170-002",
	    "cnpj": "07.278.104/0005-35",
	    "DealerCode": "06745" },
	  { "ind": 13,
	    "Brand": "NHN DISTRIBUIDORA DE VEICULOS LTDA",
	    "Name": ",Villa Lobos - GB Cars",
	    "estate": "SP",
	    "city": "São Paulo",
	    "address": "Avenida Dr Gastão Vidigal, 1430",
	    "zipcode": "05314-000",
	    "cnpj": "12.505.564/0002-46",
	    "DealerCode": "06772" },
	  { "ind": 14,
	    "Brand": "GRAND POINT COMERCIO DE VEICULOS LTDA",
	    "Name": ",Alphaville - Grand Brasil",
	    "estate": "SP",
	    "city": "Barueri",
	    "address": "Estrada da Aldeinha, 184",
	    "zipcode": "06465-100",
	    "cnpj": "01.291.387/0001-45",
	    "DealerCode": "06773" },
	  { "ind": 15,
	    "Brand": "INTERCAR UK MOTORS COMERCIO DE VEICULOS LTDA",
	    "Name": ",Itaipava - Intercar",
	    "estate": "RJ",
	    "city": "Rio de Janeiro",
	    "address": "Estrada União e Indústria, 10490",
	    "zipcode": "25750-226",
	    "cnpj": "68.639.251/0003-16",
	    "DealerCode": "06767" },
	  { "ind": 16,
	    "Brand": "INTERCAR UK MOTORS COMERCIO DE VEICULOS LTDA",
	    "Name": ",Moema - Intercar",
	    "estate": "SP",
	    "city": "São Paulo",
	    "address": "Av. Miruna, 633",
	    "zipcode": "04084-002",
	    "cnpj": "09.407.174/0001-48",
	    "DealerCode": "06767" },
	  { "ind": 17,
	    "Brand": "PREMIUM RIO VEICULOS LTDA",
	    "Name": ",Américas I - Land Rio",
	    "estate": "RJ",
	    "city": "Rio de Janeiro",
	    "address": "Av. das Américas, 4001",
	    "zipcode": "22631-004",
	    "cnpj": "68.639.251/0003-16",
	    "DealerCode": "06705" },
	  { "ind": 18,
	    "Brand": "PREMIUM RIO VEICULOS LTDA",
	    "Name": ",Botafogo - Land Rio",
	    "estate": "RJ",
	    "city": "Rio de Janeiro",
	    "address": "Rua Assunção, 236",
	    "zipcode": "22611-201",
	    "cnpj": "68.639.251/0009-01",
	    "DealerCode": "06733" },
	  { "ind": 19,
	    "Brand": "PREMIUM RIO VEICULOS LTDA",
	    "Name": ",Barra - Land Rio",
	    "estate": "RJ",
	    "city": "Rio de Janeiro",
	    "address": "Estr. da Barra da Tijuca, 75",
	    "zipcode": "22631-004",
	    "cnpj": "68.639.251/0003-16",
	    "DealerCode": "06705" },
	  { "ind": 20,
	    "Brand": "LAND VITORIA COMERCIO DE VEICULOS",
	    "Name": "Land Vitória",
	    "estate": "ES",
	    "city": "Vitória",
	    "address": "Av. Nossa Senhora da Penha nº 1885 ",
	    "zipcode": "29056-075",
	    "cnpj": "15.185.979/0004-30",
	    "DealerCode": "06777" },
	  { "ind": 21,
	    "Brand": "MAGGI IMPORT SOROCABA LTDA",
	    "Name": "Maggi Sorocaba",
	    "estate": "SP",
	    "city": "Sorocaba",
	    "address": "Av. Dr Afonso Vergueiro n, 3140",
	    "zipcode": "18035-370",
	    "cnpj": "04.935.988/0001-31",
	    "DealerCode": "06774" },
	  { "ind": 22,
	    "Brand": "NLD VEICULOS E PECAS LTDA",
	    "Name": "Newland",
	    "estate": "PI",
	    "city": "Teresina",
	    "address": "Av. Raul Lopes, 1460",
	    "zipcode": "64049-548",
	    "cnpj": "19.923.963/0001-95 ",
	    "DealerCode": "06778" },
	  { "ind": 23,
	    "Brand": "ENDEAVOUR COMERCIO DE VEICULOS LTDA",
	    "Name": "Osten",
	    "estate": "SP",
	    "city": "São José dos Campos",
	    "address": "Av Dr Eduardo Cury, 220",
	    "zipcode": "12242-001",
	    "cnpj": "97.538.376/0001-96",
	    "DealerCode": "06784" },
	  { "ind": 24,
	    "Brand": "PG PRIME AUTOMOVEIS",
	    "Name": "PG Prime",
	    "estate": "RN",
	    "city": "Natal",
	    "address": "Av. Senador Salgado Filho, 3661",
	    "zipcode": "59086-000",
	    "cnpj": "07.083.712/0001-60",
	    "DealerCode": "06760" },
	  { "ind": 25,
	    "Brand": "RAMASA",
	    "Name": "SILVER MOTORS LTDA.",
	    "estate": "TO",
	    "city": "Palmas ",
	    "address": "Av. Joaquim Teotonio Segurado, 901",
	    "zipcode": "77017-260",
	    "cnpj": "22.433.277/0001-40",
	    "DealerCode": "06785" },
	  { "ind": 26,
	    "Brand": "SAGA LONDON COMERCIO DE VEICULOS PECAS E SERVICOS LTDA",
	    "Name": "Saga London",
	    "estate": "MT",
	    "city": "Cuiabá",
	    "address": "Av. Fernando Correia da Costa, 375",
	    "zipcode": "78010-400",
	    "cnpj": "21.333.642/0001-82",
	    "DealerCode": "06780" },
	  { "ind": 27,
	    "Brand": "STEFANINI PREMIUM VEICULOS E PEÇAS LTDA",
	    "Name": "Stefanini Campinas",
	    "estate": "SP",
	    "city": "Campinas",
	    "address": "Rua Doutor Armando Sales de Oliveira, 770",
	    "zipcode": "13076-015",
	    "cnpj": "28.219.126/0001‐70",
	    "DealerCode": "06795" },
	  { "ind": 28,
	    "Brand": "SOMAFERTIL LTDA ",
	    "Name": "Somamotors",
	    "estate": "GO",
	    "city": "Goiania",
	    "address": "Av. Mutirão, 3.199",
	    "zipcode": "74150-340",
	    "cnpj": "02.705.481/0001-66",
	    "DealerCode": "06711" },
	  { "ind": 29,
	    "Brand": "TERRANOVA VEICULOS E PECAS LTDA",
	    "Name": "Terranova",
	    "estate": "MG",
	    "city": "Belo Horizonte",
	    "address": "Av. Barão Homem de Melo, 3191",
	    "zipcode": "30494-080",
	    "cnpj": "71.239.248/0001-58",
	    "DealerCode": "06713" },
	  { "ind": 30,
	    "Brand": "PREMIER VEICULOS LTDA",
	    "Name": "Top Car Porto Alegre",
	    "estate": "RS",
	    "city": "Porto Alegre",
	    "address": "Av. Ceará, 724",
	    "zipcode": "90240-510",
	    "cnpj": "04.871.143/0004-72",
	    "DealerCode": "06791" },
	  { "ind": 31,
	    "Brand": "PREMIER VEICULOS LTDA",
	    "Name": "Top Car Blumenau",
	    "estate": "SC",
	    "city": "Blumenau",
	    "address": "Rua Itajai,  682",
	    "zipcode": "89015-200",
	    "cnpj": "07.444.289/0001-87",
	    "DealerCode": "06763" },
	  { "ind": 32,
	    "Brand": "PREMIER VEICULOS LTDA",
	    "Name": ",Camboriu - Top Car",
	    "estate": "SC",
	    "city": "Balneario Camboriu",
	    "address": "Avenida do Estado, 371",
	    "zipcode": "88331-490",
	    "cnpj": "07.444.289/0004-20",
	    "DealerCode": "06766" },
	  { "ind": 33,
	    "Brand": "PREMIER VEICULOS LTDA",
	    "Name": "Top Car Florianopolis",
	    "estate": "SC",
	    "city": "Florianopolis",
	    "address": "Rua Professor Egidio Ferreira, 206",
	    "zipcode": "88090-500",
	    "cnpj": "07.444.289/0003-49",
	    "DealerCode": "06764" },
	  { "ind": 34,
	    "Brand": "BOX COMERCIO DE VEICULOS LTDA",
	    "Name": ",Manaus - Way",
	    "estate": "AM",
	    "city": "Manaus",
	    "address": "Av. Djalma Batista 3355",
	    "zipcode": "69050-001",
	    "cnpj": "09.326.514/0059-22",
	    "DealerCode": "06775" },
	  { "ind": 35,
	    "Brand": "BOX COMERCIO DE VEICULOS LTDA",
	    "Name": "Way São Luis",
	    "estate": "MA",
	    "city": "São Luis",
	    "address": "Av. dos Holandeses 08 - Lote B quadra 7",
	    "zipcode": "65071-380",
	    "cnpj": "09.326.514/0001-06",
	    "DealerCode": "06776" },
	  { "ind": 36,
	    "Brand": "BOX COMERCIO DE VEICULOS LTDA",
	    "Name": "Way Recife",
	    "estate": "PE",
	    "city": "Recife",
	    "address": "Av marechal mascarenhas de moraes, 3421",
	    "zipcode": "51150-003",
	    "cnpj": "09.326.514/0003-78",
	    "DealerCode": "06788" },
	  { "ind": 37,
	    "Brand": "BOX COMERCIO DE VEICULOS LTDA",
	    "Name": "Way",
	    "estate": "PB",
	    "city": "João Pessoa",
	    "address": "Rodovia BR230, km11,9, n.1162",
	    "zipcode": "58310-00",
	    "cnpj": "09.326.514/0060-66",
	    "DealerCode": "06789" },
	  { "ind": 38,
	    "Brand": "BOX COMERCIO DE VEICULOS LTDA",
	    "Name": "Way Salvador",
	    "estate": "BA",
	    "city": "Salvador",
	    "address": "Av. Oceânica, 3764",
	    "zipcode": "40295-140",
	    "cnpj": "09.326.514/0061-47",
	    "DealerCode": "06790" } ]}